CCSDS_OMM_VERS = 2.0
CREATION_DATE  = 
ORIGINATOR     = 

OBJECT_NAME    = STARLINK-37096
OBJECT_ID      = 2026-054H
CENTER_NAME    = EARTH
REF_FRAME      = TEME
TIME_SYSTEM    = UTC
MEAN_ELEMENT_THEORY = SGP/SGP4

EPOCH          = 2026-04-02T17:01:43.342752
MEAN_MOTION    = 15.81035864
ECCENTRICITY   = .00008759
INCLINATION    = 53.1584
RA_OF_ASC_NODE = 192.2262
ARG_OF_PERICENTER = 105.4393
MEAN_ANOMALY   = 254.6727

EPHEMERIS_TYPE = 0
CLASSIFICATION_TYPE = U
NORAD_CAT_ID   = 68239
ELEMENT_SET_NO = 999
REV_AT_EPOCH   = 257
BSTAR          = .15887507E-2
MEAN_MOTION_DOT = .327511E-2
MEAN_MOTION_DDOT = 0

CCSDS_OMM_VERS = 2.0
CREATION_DATE  = 
ORIGINATOR     = 

OBJECT_NAME    = STARLINK-37092
OBJECT_ID      = 2026-054J
CENTER_NAME    = EARTH
REF_FRAME      = TEME
TIME_SYSTEM    = UTC
MEAN_ELEMENT_THEORY = SGP/SGP4

EPOCH          = 2026-04-01T18:17:24.050688
MEAN_MOTION    = 15.80699611
ECCENTRICITY   = .0000901
INCLINATION    = 53.1592
RA_OF_ASC_NODE = 196.9847
ARG_OF_PERICENTER = 264.3006
MEAN_ANOMALY   = 95.7914

EPHEMERIS_TYPE = 0
CLASSIFICATION_TYPE = U
NORAD_CAT_ID   = 68240
ELEMENT_SET_NO = 999
REV_AT_EPOCH   = 242
BSTAR          = .21526474E-2
MEAN_MOTION_DOT = .443187E-2
MEAN_MOTION_DDOT = 0

CCSDS_OMM_VERS = 2.0
CREATION_DATE  = 
ORIGINATOR     = 

OBJECT_NAME    = STARLINK-37094
OBJECT_ID      = 2026-054K
CENTER_NAME    = EARTH
REF_FRAME      = TEME
TIME_SYSTEM    = UTC
MEAN_ELEMENT_THEORY = SGP/SGP4

EPOCH          = 2026-04-02T17:00:38.861568
MEAN_MOTION    = 15.81003769
ECCENTRICITY   = .00013153
INCLINATION    = 53.1588
RA_OF_ASC_NODE = 192.2213
ARG_OF_PERICENTER = 64.2591
MEAN_ANOMALY   = 295.8568

EPHEMERIS_TYPE = 0
CLASSIFICATION_TYPE = U
NORAD_CAT_ID   = 68241
ELEMENT_SET_NO = 999
REV_AT_EPOCH   = 257
BSTAR          = .14197294E-2
MEAN_MOTION_DOT = .290903E-2
MEAN_MOTION_DDOT = 0

CCSDS_OMM_VERS = 2.0
CREATION_DATE  = 
ORIGINATOR     = 

OBJECT_NAME    = STARLINK-36356
OBJECT_ID      = 2026-054L
CENTER_NAME    = EARTH
REF_FRAME      = TEME
TIME_SYSTEM    = UTC
MEAN_ELEMENT_THEORY = SGP/SGP4

EPOCH          = 2026-04-02T22:00:01.999584
MEAN_MOTION    = 15.75311827
ECCENTRICITY   = .00007915
INCLINATION    = 53.1589
RA_OF_ASC_NODE = 191.2861
ARG_OF_PERICENTER = 82.0051
MEAN_ANOMALY   = 330.2053

EPHEMERIS_TYPE = 0
CLASSIFICATION_TYPE = U
NORAD_CAT_ID   = 68242
ELEMENT_SET_NO = 999
REV_AT_EPOCH   = 384
BSTAR          = -.14860336E-2
MEAN_MOTION_DOT = -.223225E-2
MEAN_MOTION_DDOT = 0

CCSDS_OMM_VERS = 2.0
CREATION_DATE  = 
ORIGINATOR     = 

OBJECT_NAME    = STARLINK-36345
OBJECT_ID      = 2026-054M
CENTER_NAME    = EARTH
REF_FRAME      = TEME
TIME_SYSTEM    = UTC
MEAN_ELEMENT_THEORY = SGP/SGP4

EPOCH          = 2026-04-02T17:25:48.317952
MEAN_MOTION    = 15.75304753
ECCENTRICITY   = .00016364
INCLINATION    = 53.1606
RA_OF_ASC_NODE = 192.3375
ARG_OF_PERICENTER = 56.2979
MEAN_ANOMALY   = 303.8197

EPHEMERIS_TYPE = 0
CLASSIFICATION_TYPE = U
NORAD_CAT_ID   = 68243
ELEMENT_SET_NO = 999
REV_AT_EPOCH   = 257
BSTAR          = .97082695E-3
MEAN_MOTION_DOT = .151302E-2
MEAN_MOTION_DDOT = 0

CCSDS_OMM_VERS = 2.0
CREATION_DATE  = 
ORIGINATOR     = 

OBJECT_NAME    = STARLINK-36310
OBJECT_ID      = 2026-054N
CENTER_NAME    = EARTH
REF_FRAME      = TEME
TIME_SYSTEM    = UTC
MEAN_ELEMENT_THEORY = SGP/SGP4

EPOCH          = 2026-04-02T16:56:19.729824
MEAN_MOTION    = 15.80950062
ECCENTRICITY   = .00011295
INCLINATION    = 53.1594
RA_OF_ASC_NODE = 192.2010
ARG_OF_PERICENTER = 84.3811
MEAN_ANOMALY   = 275.7341

EPHEMERIS_TYPE = 0
CLASSIFICATION_TYPE = U
NORAD_CAT_ID   = 68244
ELEMENT_SET_NO = 999
REV_AT_EPOCH   = 257
BSTAR          = .82260618E-3
MEAN_MOTION_DOT = .165389E-2
MEAN_MOTION_DDOT = 0

CCSDS_OMM_VERS = 2.0
CREATION_DATE  = 
ORIGINATOR     = 

OBJECT_NAME    = STARLINK-36247
OBJECT_ID      = 2026-054P
CENTER_NAME    = EARTH
REF_FRAME      = TEME
TIME_SYSTEM    = UTC
MEAN_ELEMENT_THEORY = SGP/SGP4

EPOCH          = 2026-04-02T18:28:25.832352
MEAN_MOTION    = 15.81097992
ECCENTRICITY   = .00007574
INCLINATION    = 53.1586
RA_OF_ASC_NODE = 191.8894
ARG_OF_PERICENTER = 136.6018
MEAN_ANOMALY   = 223.5065

EPHEMERIS_TYPE = 0
CLASSIFICATION_TYPE = U
NORAD_CAT_ID   = 68245
ELEMENT_SET_NO = 999
REV_AT_EPOCH   = 258
BSTAR          = .23752334E-2
MEAN_MOTION_DOT = .501577E-2
MEAN_MOTION_DDOT = 0

CCSDS_OMM_VERS = 2.0
CREATION_DATE  = 
ORIGINATOR     = 

OBJECT_NAME    = STARLINK-37043
OBJECT_ID      = 2026-054Q
CENTER_NAME    = EARTH
REF_FRAME      = TEME
TIME_SYSTEM    = UTC
MEAN_ELEMENT_THEORY = SGP/SGP4

EPOCH          = 2026-04-02T16:55:14.723328
MEAN_MOTION    = 15.80979080
ECCENTRICITY   = .00009812
INCLINATION    = 53.1593
RA_OF_ASC_NODE = 192.1967
ARG_OF_PERICENTER = 67.9541
MEAN_ANOMALY   = 292.1586

EPHEMERIS_TYPE = 0
CLASSIFICATION_TYPE = U
NORAD_CAT_ID   = 68246
ELEMENT_SET_NO = 999
REV_AT_EPOCH   = 257
BSTAR          = .1407281E-2
MEAN_MOTION_DOT = .28792E-2
MEAN_MOTION_DDOT = 0

CCSDS_OMM_VERS = 2.0
CREATION_DATE  = 
ORIGINATOR     = 

OBJECT_NAME    = STARLINK-37044
OBJECT_ID      = 2026-054R
CENTER_NAME    = EARTH
REF_FRAME      = TEME
TIME_SYSTEM    = UTC
MEAN_ELEMENT_THEORY = SGP/SGP4

EPOCH          = 2026-04-02T18:25:11.614656
MEAN_MOTION    = 15.81050945
ECCENTRICITY   = .00012001
INCLINATION    = 53.1593
RA_OF_ASC_NODE = 191.8749
ARG_OF_PERICENTER = 69.2419
MEAN_ANOMALY   = 290.8732

EPHEMERIS_TYPE = 0
CLASSIFICATION_TYPE = U
NORAD_CAT_ID   = 68247
ELEMENT_SET_NO = 999
REV_AT_EPOCH   = 258
BSTAR          = .18232021E-2
MEAN_MOTION_DOT = .378459E-2
MEAN_MOTION_DDOT = 0

CCSDS_OMM_VERS = 2.0
CREATION_DATE  = 
ORIGINATOR     = 

OBJECT_NAME    = STARLINK-36997
OBJECT_ID      = 2026-054S
CENTER_NAME    = EARTH
REF_FRAME      = TEME
TIME_SYSTEM    = UTC
MEAN_ELEMENT_THEORY = SGP/SGP4

EPOCH          = 2026-04-02T17:19:16.010112
MEAN_MOTION    = 15.75328965
ECCENTRICITY   = .00010502
INCLINATION    = 53.1603
RA_OF_ASC_NODE = 192.3073
ARG_OF_PERICENTER = 89.8727
MEAN_ANOMALY   = 270.2414

EPHEMERIS_TYPE = 0
CLASSIFICATION_TYPE = U
NORAD_CAT_ID   = 68248
ELEMENT_SET_NO = 999
REV_AT_EPOCH   = 257
BSTAR          = .11929673E-2
MEAN_MOTION_DOT = .18706E-2
MEAN_MOTION_DDOT = 0

CCSDS_OMM_VERS = 2.0
CREATION_DATE  = 
ORIGINATOR     = 

OBJECT_NAME    = STARLINK-37141
OBJECT_ID      = 2026-054T
CENTER_NAME    = EARTH
REF_FRAME      = TEME
TIME_SYSTEM    = UTC
MEAN_ELEMENT_THEORY = SGP/SGP4

EPOCH          = 2026-04-02T22:00:01.999584
MEAN_MOTION    = 15.75306522
ECCENTRICITY   = .00011782
INCLINATION    = 53.1588
RA_OF_ASC_NODE = 191.1808
ARG_OF_PERICENTER = 73.6645
MEAN_ANOMALY   = 30.0556

EPHEMERIS_TYPE = 0
CLASSIFICATION_TYPE = U
NORAD_CAT_ID   = 68249
ELEMENT_SET_NO = 999
REV_AT_EPOCH   = 388
BSTAR          = -.14323956E-2
MEAN_MOTION_DOT = -.215352E-2
MEAN_MOTION_DDOT = 0

CCSDS_OMM_VERS = 2.0
CREATION_DATE  = 
ORIGINATOR     = 

OBJECT_NAME    = STARLINK-37087
OBJECT_ID      = 2026-054U
CENTER_NAME    = EARTH
REF_FRAME      = TEME
TIME_SYSTEM    = UTC
MEAN_ELEMENT_THEORY = SGP/SGP4

EPOCH          = 2026-04-02T22:00:01.999584
MEAN_MOTION    = 15.75278425
ECCENTRICITY   = .00011994
INCLINATION    = 53.1587
RA_OF_ASC_NODE = 191.2371
ARG_OF_PERICENTER = 119.7432
MEAN_ANOMALY   = 316.3637

EPHEMERIS_TYPE = 0
CLASSIFICATION_TYPE = U
NORAD_CAT_ID   = 68250
ELEMENT_SET_NO = 999
REV_AT_EPOCH   = 380
BSTAR          = -.11287437E-2
MEAN_MOTION_DOT = -.170517E-2
MEAN_MOTION_DDOT = 0

