STARLINK-37096          
1 68239U 26054H   26092.70952943  .00327511  00000+0  15888-2 0  9993
2 68239  53.1584 192.2262 0000875 105.4393 254.6727 15.81035864  2573
STARLINK-37092          
1 68240U 26054J   26091.76208392  .00443187  00000+0  21526-2 0  9996
2 68240  53.1592 196.9847 0000901 264.3006  95.7914 15.80699611  2421
STARLINK-37094          
1 68241U 26054K   26092.70878312  .00290903  00000+0  14197-2 0  9999
2 68241  53.1588 192.2213 0001315  64.2591 295.8568 15.81003769  2577
STARLINK-36356          
1 68242U 26054L   26092.91668981 -.00223225  00000+0 -14860-2 0  9994
2 68242  53.1589 191.2861 0000791  82.0051 330.2053 15.75311827  3847
STARLINK-36345          
1 68243U 26054M   26092.72625368  .00151302  00000+0  97083-3 0  9999
2 68243  53.1606 192.3375 0001636  56.2979 303.8197 15.75304753  2575
STARLINK-36310          
1 68244U 26054N   26092.70578391  .00165389  00000+0  82261-3 0  9993
2 68244  53.1594 192.2010 0001129  84.3811 275.7341 15.80950062  2575
STARLINK-36247          
1 68245U 26054P   26092.76974343  .00501577  00000+0  23752-2 0  9999
2 68245  53.1586 191.8894 0000757 136.6018 223.5065 15.81097992  2588
STARLINK-37043          
1 68246U 26054Q   26092.70503152  .00287920  00000+0  14073-2 0  9999
2 68246  53.1593 192.1967 0000981  67.9541 292.1586 15.80979080  2573
STARLINK-37044          
1 68247U 26054R   26092.76749554  .00378459  00000+0  18232-2 0  9993
2 68247  53.1593 191.8749 0001200  69.2419 290.8732 15.81050945  2582
STARLINK-36997          
1 68248U 26054S   26092.72171308  .00187060  00000+0  11930-2 0  9990
2 68248  53.1603 192.3073 0001050  89.8727 270.2414 15.75328965  2575
STARLINK-37141          
1 68249U 26054T   26092.91668981 -.00215352  00000+0 -14324-2 0  9998
2 68249  53.1588 191.1808 0001178  73.6645  30.0556 15.75306522  3881
STARLINK-37087          
1 68250U 26054U   26092.91668981 -.00170517  00000+0 -11287-2 0  9998
2 68250  53.1587 191.2371 0001199 119.7432 316.3637 15.75278425  3809
